ORBCOMM FM108           
1 41187U 15081J   24351.12143252  .00002102  00000+0  49367-3 0  9997
2 41187  47.0037 251.1572 0002404 182.2369 177.8505 14.57603563480160
ORBCOMM FM117           
1 41188U 15081K   24351.43087241  .00001884  00000+0  44639-3 0  9990
2 41188  47.0007 248.5253 0002772 198.4019 161.6767 14.57605293480223
ORBCOMM FM116           
1 41189U 15081L   24351.42060971  .00002109  00000+0  49551-3 0  9990
2 41189  47.0023 338.4149 0002929 291.4780  68.5793 14.57580705479051
